start=new Date('2021-10-22T00:00:00.000Z').valueOf();
sats=[{"ECCENTRICITY":"0.00016590","RCS_SIZE":"LARGE","OBJECT_NAME":"STARLINK-1023","PERIOD":"91.635","CENTER_NAME":"EARTH","TLE_LINE1":"1 44728U 19074R   21294.68229260  .00000657  00000-0  96836-5 0  9994","REV_AT_EPOCH":"10800","APOAPSIS":"355.861","MEAN_MOTION_DOT":"0.00000657","RA_OF_ASC_NODE":"139.9674","TIME_SYSTEM":"UTC","EPHEMERIS_TYPE":"0","ELEMENT_SET_NO":"999","PERIAPSIS":"353.627","LAUNCH_DATE":"2019-11-11","SEMIMAJOR_AXIS":"6732.879","EPOCH":"2021-10-21T16:22:30.080640","TLE_LINE2":"2 44728  53.0546 139.9674 0001659  35.2620 324.8507 15.71453383108006","MEAN_MOTION":"15.71453383","ARG_OF_PERICENTER":"35.2620","DECAY_DATE":null,"OBJECT_TYPE":"PAYLOAD","NORAD_CAT_ID":"44728","COUNTRY_CODE":"US","CLASSIFICATION_TYPE":"U","INCLINATION":"53.0546","BSTAR":"0.00000968360000","MEAN_ELEMENT_THEORY":"SGP4","REF_FRAME":"TEME","MEAN_ANOMALY":"324.8507","FILE":"3176920","SITE":"AFETR","OBJECT_ID":"2019-074R","MEAN_MOTION_DDOT":"0.0000000000000","GP_ID":"187838094"},{"PERIAPSIS":"541.753","ELEMENT_SET_NO":"999","SEMIMAJOR_AXIS":"6920.707","LAUNCH_DATE":"2019-11-11","EPOCH":"2021-10-21T21:31:25.171968","MEAN_MOTION":"15.07915668","TLE_LINE2":"2 44729  53.0002 185.4523 0001183  53.0202 307.0895 15.07915668107368","ARG_OF_PERICENTER":"53.0202","DECAY_DATE":null,"REV_AT_EPOCH":"10736","TLE_LINE1":"1 44729U 19074S   21294.89681912  .00004828  00000-0  32921-3 0  9991","APOAPSIS":"543.391","MEAN_MOTION_DOT":"0.00004828","RA_OF_ASC_NODE":"185.4523","TIME_SYSTEM":"UTC","EPHEMERIS_TYPE":"0","OBJECT_NAME":"STARLINK-1024","PERIOD":"95.496","CENTER_NAME":"EARTH","ECCENTRICITY":"0.00011830","RCS_SIZE":"LARGE","MEAN_MOTION_DDOT":"0.0000000000000","GP_ID":"187837845","MEAN_ANOMALY":"307.0895","FILE":"3176920","SITE":"AFETR","OBJECT_ID":"2019-074S","INCLINATION":"53.0002","BSTAR":"0.00032921000000","MEAN_ELEMENT_THEORY":"SGP4","REF_FRAME":"TEME","OBJECT_TYPE":"PAYLOAD","NORAD_CAT_ID":"44729","COUNTRY_CODE":"US","CLASSIFICATION_TYPE":"U"},{"PERIOD":"95.592","CENTER_NAME":"EARTH","OBJECT_NAME":"STARLINK-1026","RCS_SIZE":"LARGE","ECCENTRICITY":"0.00016980","TLE_LINE2":"2 44731  53.0520 168.2276 0001698  68.0626 292.0544 15.06398974107624","MEAN_MOTION":"15.06398974","ARG_OF_PERICENTER":"68.0626","DECAY_DATE":null,"PERIAPSIS":"546.041","ELEMENT_SET_NO":"999","EPOCH":"2021-10-21T22:19:02.410464","LAUNCH_DATE":"2019-11-11","SEMIMAJOR_AXIS":"6925.352","EPHEMERIS_TYPE":"0","TIME_SYSTEM":"UTC","RA_OF_ASC_NODE":"168.2276","REV_AT_EPOCH":"10762","TLE_LINE1":"1 44731U 19074U   21294.92988901  .00001262  00000-0  10364-3 0  9992","APOAPSIS":"548.393","MEAN_MOTION_DOT":"0.00001262","MEAN_ELEMENT_THEORY":"SGP4","REF_FRAME":"TEME","BSTAR":"0.00010364000000","INCLINATION":"53.0520","CLASSIFICATION_TYPE":"U","OBJECT_TYPE":"PAYLOAD","COUNTRY_CODE":"US","NORAD_CAT_ID":"44731","GP_ID":"187839096","MEAN_MOTION_DDOT":"0.0000000000000","OBJECT_ID":"2019-074U","MEAN_ANOMALY":"292.0544","SITE":"AFETR","FILE":"3176920"},{"OBJECT_ID":"2019-074V","FILE":"3176920","SITE":"AFETR","MEAN_ANOMALY":"288.6288","GP_ID":"187839341","MEAN_MOTION_DDOT":"0.0000000000000","CLASSIFICATION_TYPE":"U","NORAD_CAT_ID":"44732","COUNTRY_CODE":"US","OBJECT_TYPE":"PAYLOAD","REF_FRAME":"TEME","MEAN_ELEMENT_THEORY":"SGP4","INCLINATION":"53.0528","BSTAR":"0.00001465100000","RA_OF_ASC_NODE":"189.4775","TIME_SYSTEM":"UTC","EPHEMERIS_TYPE":"0","APOAPSIS":"548.431","MEAN_MOTION_DOT":"-0.00000063","TLE_LINE1":"1 44732U 19074V   21294.65159778 -.00000063  00000-0  14651-4 0  9998","REV_AT_EPOCH":"10730","DECAY_DATE":null,"TLE_LINE2":"2 44732  53.0528 189.4775 0001743  71.4890 288.6288 15.06396551107304","MEAN_MOTION":"15.06396551","ARG_OF_PERICENTER":"71.4890","EPOCH":"2021-10-21T15:38:18.048192","LAUNCH_DATE":"2019-11-11","SEMIMAJOR_AXIS":"6925.359","PERIAPSIS":"546.017","ELEMENT_SET_NO":"999","RCS_SIZE":"LARGE","ECCENTRICITY":"0.00017430","CENTER_NAME":"EARTH","PERIOD":"95.592","OBJECT_NAME":"STARLINK-1027"},{"REV_AT_EPOCH":"10762","TLE_LINE1":"1 44733U 19074W   21294.91515576 -.00002705  00000-0 -16277-3 0  9991","MEAN_MOTION_DOT":"-0.00002705","APOAPSIS":"548.435","TIME_SYSTEM":"UTC","EPHEMERIS_TYPE":"0","RA_OF_ASC_NODE":"168.2904","ELEMENT_SET_NO":"999","PERIAPSIS":"546.016","LAUNCH_DATE":"2019-11-11","EPOCH":"2021-10-21T21:57:49.457664","SEMIMAJOR_AXIS":"6925.361","TLE_LINE2":"2 44733  53.0544 168.2904 0001747  76.6153 283.5031 15.06396079107625","MEAN_MOTION":"15.06396079","ARG_OF_PERICENTER":"76.6153","DECAY_DATE":null,"ECCENTRICITY":"0.00017470","RCS_SIZE":"LARGE","OBJECT_NAME":"STARLINK-1028","PERIOD":"95.592","CENTER_NAME":"EARTH","MEAN_ANOMALY":"283.5031","SITE":"AFETR","FILE":"3176920","OBJECT_ID":"2019-074W","MEAN_MOTION_DDOT":"0.0000000000000","GP_ID":"187837595","OBJECT_TYPE":"PAYLOAD","COUNTRY_CODE":"US","NORAD_CAT_ID":"44733","CLASSIFICATION_TYPE":"U","BSTAR":"-0.00016277000000","INCLINATION":"53.0544","MEAN_ELEMENT_THEORY":"SGP4","REF_FRAME":"TEME"},{"OBJECT_TYPE":"PAYLOAD","NORAD_CAT_ID":"44734","COUNTRY_CODE":"US","CLASSIFICATION_TYPE":"U","INCLINATION":"53.0007","BSTAR":"-0.00002504600000","MEAN_ELEMENT_THEORY":"SGP4","REF_FRAME":"TEME","MEAN_ANOMALY":"269.7240","FILE":"3176920","SITE":"AFETR","OBJECT_ID":"2019-074X","MEAN_MOTION_DDOT":"0.0000000000000","GP_ID":"187838345","ECCENTRICITY":"0.00012870","RCS_SIZE":"LARGE","OBJECT_NAME":"STARLINK-1029","PERIOD":"95.643","CENTER_NAME":"EARTH","TLE_LINE1":"1 44734U 19074X   21294.78752993 -.00000644  00000-0 -25046-4 0  9998","REV_AT_EPOCH":"10870","MEAN_MOTION_DOT":"-0.00000644","APOAPSIS":"550.580","RA_OF_ASC_NODE":"88.8624","EPHEMERIS_TYPE":"0","TIME_SYSTEM":"UTC","PERIAPSIS":"548.797","ELEMENT_SET_NO":"999","EPOCH":"2021-10-21T18:54:02.585952","LAUNCH_DATE":"2019-11-11","SEMIMAJOR_AXIS":"6927.824","TLE_LINE2":"2 44734  53.0007  88.8624 0001287  90.3895 269.7240 15.05592736108706","MEAN_MOTION":"15.05592736","ARG_OF_PERICENTER":"90.3895","DECAY_DATE":null},{"CLASSIFICATION_TYPE":"U","NORAD_CAT_ID":"44735","COUNTRY_CODE":"US","OBJECT_TYPE":"PAYLOAD","REF_FRAME":"TEME","MEAN_ELEMENT_THEORY":"SGP4","INCLINATION":"53.0541","BSTAR":"0.00027411000000","OBJECT_ID":"2019-074Y","FILE":"3176920","SITE":"AFETR","MEAN_ANOMALY":"289.3440","GP_ID":"187838597","MEAN_MOTION_DDOT":"0.0000000000000","RCS_SIZE":"LARGE","ECCENTRICITY":"0.00018420","CENTER_NAME":"EARTH","PERIOD":"95.590","OBJECT_NAME":"STARLINK-1030","RA_OF_ASC_NODE":"188.2544","TIME_SYSTEM":"UTC","EPHEMERIS_TYPE":"0","APOAPSIS":"548.403","MEAN_MOTION_DOT":"0.00003807","TLE_LINE1":"1 44735U 19074Y   21294.92431684  .00003807  00000-0  27411-3 0  9995","REV_AT_EPOCH":"10734","DECAY_DATE":null,"MEAN_MOTION":"15.06428107","TLE_LINE2":"2 44735  53.0541 188.2544 0001842  70.7748 289.3440 15.06428107107342","ARG_OF_PERICENTER":"70.7748","SEMIMAJOR_AXIS":"6925.262","LAUNCH_DATE":"2019-11-11","EPOCH":"2021-10-21T22:11:00.974976","ELEMENT_SET_NO":"999","PERIAPSIS":"545.852"},{"MEAN_MOTION_DDOT":"0.0000000000000","GP_ID":"187838842","SITE":"AFETR","FILE":"3176920","MEAN_ANOMALY":"293.2696","OBJECT_ID":"2019-074Z","BSTAR":"-0.00004847200000","INCLINATION":"53.0541","REF_FRAME":"TEME","MEAN_ELEMENT_THEORY":"SGP4","COUNTRY_CODE":"US","NORAD_CAT_ID":"44736","OBJECT_TYPE":"PAYLOAD","CLASSIFICATION_TYPE":"U","EPOCH":"2021-10-21T22:32:19.756320","LAUNCH_DATE":"2019-11-11","SEMIMAJOR_AXIS":"6925.396","PERIAPSIS":"546.199","ELEMENT_SET_NO":"999","DECAY_DATE":null,"TLE_LINE2":"2 44736  53.0541 188.1855 0001533  66.8454 293.2696 15.06384485107352","MEAN_MOTION":"15.06384485","ARG_OF_PERICENTER":"66.8454","MEAN_MOTION_DOT":"-0.00001003","APOAPSIS":"548.323","TLE_LINE1":"1 44736U 19074Z   21294.93911755 -.00001003  00000-0 -48472-4 0  9998","REV_AT_EPOCH":"10735","TIME_SYSTEM":"UTC","EPHEMERIS_TYPE":"0","RA_OF_ASC_NODE":"188.1855","OBJECT_NAME":"STARLINK-1031","CENTER_NAME":"EARTH","PERIOD":"95.593","ECCENTRICITY":"0.00015330","RCS_SIZE":"LARGE"},{"TIME_SYSTEM":"UTC","EPHEMERIS_TYPE":"0","RA_OF_ASC_NODE":"188.1387","APOAPSIS":"548.417","MEAN_MOTION_DOT":"-0.00000436","TLE_LINE1":"1 44737U 19074AA  21294.95017546 -.00000436  00000-0 -10363-4 0  9993","REV_AT_EPOCH":"10735","DECAY_DATE":null,"MEAN_MOTION":"15.06392685","TLE_LINE2":"2 44737  53.0542 188.1387 0001706  70.0267 290.0906 15.06392685107355","ARG_OF_PERICENTER":"70.0267","SEMIMAJOR_AXIS":"6925.371","LAUNCH_DATE":"2019-11-11","EPOCH":"2021-10-21T22:48:15.159744","PERIAPSIS":"546.055","ELEMENT_SET_NO":"999","RCS_SIZE":"LARGE","ECCENTRICITY":"0.00017060","CENTER_NAME":"EARTH","PERIOD":"95.593","OBJECT_NAME":"STARLINK-1032","OBJECT_ID":"2019-074AA","SITE":"AFETR","FILE":"3176920","MEAN_ANOMALY":"290.0906","GP_ID":"187838095","MEAN_MOTION_DDOT":"0.0000000000000","CLASSIFICATION_TYPE":"U","COUNTRY_CODE":"US","NORAD_CAT_ID":"44737","OBJECT_TYPE":"PAYLOAD","REF_FRAME":"TEME","MEAN_ELEMENT_THEORY":"SGP4","BSTAR":"-0.00001036300000","INCLINATION":"53.0542"},{"PERIOD":"95.593","CENTER_NAME":"EARTH","OBJECT_NAME":"STARLINK-1033","RCS_SIZE":"LARGE","ECCENTRICITY":"0.00020550","TLE_LINE2":"2 44738  53.0534 188.1898 0002055  74.0950 286.0265 15.06391642107349","MEAN_MOTION":"15.06391642","ARG_OF_PERICENTER":"74.0950","DECAY_DATE":null,"PERIAPSIS":"545.816","ELEMENT_SET_NO":"999","EPOCH":"2021-10-21T22:27:00.795168","LAUNCH_DATE":"2019-11-11","SEMIMAJOR_AXIS":"6925.374","TIME_SYSTEM":"UTC","EPHEMERIS_TYPE":"0","RA_OF_ASC_NODE":"188.1898","REV_AT_EPOCH":"10734","TLE_LINE1":"1 44738U 19074AB  21294.93542587 -.00001576  00000-0 -86928-4 0  9996","APOAPSIS":"548.662","MEAN_MOTION_DOT":"-0.00001576","MEAN_ELEMENT_THEORY":"SGP4","REF_FRAME":"TEME","BSTAR":"-0.00008692800000","INCLINATION":"53.0534","CLASSIFICATION_TYPE":"U","OBJECT_TYPE":"PAYLOAD","COUNTRY_CODE":"US","NORAD_CAT_ID":"44738","GP_ID":"187837846","MEAN_MOTION_DDOT":"0.0000000000000","OBJECT_ID":"2019-074AB","MEAN_ANOMALY":"286.0265","SITE":"AFETR","FILE":"3176920"}];
